[{"OBJECT_NAME":"STARLINK-2371","OBJECT_ID":"2021-021BD","EPOCH":"2026-03-09T21:41:50.826336","MEAN_MOTION":15.30182203,"ECCENTRICITY":0.00011884,"INCLINATION":53.16,"RA_OF_ASC_NODE":279.9967,"ARG_OF_PERICENTER":91.3442,"MEAN_ANOMALY":268.7695,"EPHEMERIS_TYPE":0,"CLASSIFICATION_TYPE":"U","NORAD_CAT_ID":47911,"ELEMENT_SET_NO":999,"REV_AT_EPOCH":27594,"BSTAR":3.4458377e-5,"MEAN_MOTION_DOT":6.61e-6,"MEAN_MOTION_DDOT":0},{"OBJECT_NAME":"COSMOS 2251 DEB","OBJECT_ID":"1993-036BPR","EPOCH":"2026-02-24T07:57:21.236256","MEAN_MOTION":15.23776337,"ECCENTRICITY":0.00166824,"INCLINATION":73.9787,"RA_OF_ASC_NODE":76.2838,"ARG_OF_PERICENTER":284.1156,"MEAN_ANOMALY":75.8189,"EPHEMERIS_TYPE":0,"CLASSIFICATION_TYPE":"U","NORAD_CAT_ID":37966,"ELEMENT_SET_NO":999,"REV_AT_EPOCH":86459,"BSTAR":0.0031189174,"MEAN_MOTION_DOT":0.00076101,"MEAN_MOTION_DDOT":0}]
